[{"OBJECT_NAME":"STARLINK-5078","OBJECT_ID":"2022-177AP","EPOCH":"2026-03-09T22:00:01.999584","MEAN_MOTION":15.07993689,"ECCENTRICITY":6.649e-5,"INCLINATION":43.0006,"RA_OF_ASC_NODE":119.0603,"ARG_OF_PERICENTER":249.4798,"MEAN_ANOMALY":331.8571,"EPHEMERIS_TYPE":0,"CLASSIFICATION_TYPE":"U","NORAD_CAT_ID":54857,"ELEMENT_SET_NO":999,"REV_AT_EPOCH":567,"BSTAR":0.00361092,"MEAN_MOTION_DOT":0.00056732,"MEAN_MOTION_DDOT":0},{"OBJECT_NAME":"CZ-6A DEB","OBJECT_ID":"2024-140FT","EPOCH":"2026-03-09T20:21:11.789568","MEAN_MOTION":14.71915772,"ECCENTRICITY":0.01746518,"INCLINATION":89.0601,"RA_OF_ASC_NODE":285.0345,"ARG_OF_PERICENTER":174.2343,"MEAN_ANOMALY":186.0946,"EPHEMERIS_TYPE":0,"CLASSIFICATION_TYPE":"U","NORAD_CAT_ID":60792,"ELEMENT_SET_NO":999,"REV_AT_EPOCH":8444,"BSTAR":0.00029453778,"MEAN_MOTION_DOT":2.37e-5,"MEAN_MOTION_DDOT":0}]
